NORAD_CAT_ID,OBJECT_NAME,OBJECT_TYPE,EPOCH,MEAN_MOTION,ECCENTRICITY,INCLINATION,RA_OF_ASC_NODE,ARG_OF_PERICENTER,MEAN_ANOMALY,BSTAR,MEAN_MOTION_DOT,MEAN_MOTION_DDOT,TLE_LINE0,TLE_LINE1,TLE_LINE2,SEMIMAJOR_AXIS,PERIOD,APOGEE,PERIGEE,DECAYED
52667.0,STARLINK-4076,PAYLOAD,2024-02-12 22:12:11,15.08841776,0.0001566,53.2171,306.8833,74.6704,285.4461,-4.0047e-06,-3.52e-06,0.0,0 STARLINK-4076,1 52667U 22053M   24043.92513210 -.00000352  00000-0 -40047-5 0  9996,2 52667  53.2171 306.8833 0001566  74.6704 285.4461 15.08841776 96950,6917.875,95.437,540.823,538.657,0.0
52667.0,STARLINK-4076,PAYLOAD,2024-02-13 10:55:16,15.08839984,0.0001403,53.2176,304.4974,112.9269,247.1872,-4.1559e-05,-9.49e-06,0.0,0 STARLINK-4076,1 52667U 22053M   24044.45504934 -.00000949  00000-0 -41559-4 0  9998,2 52667  53.2176 304.4974 0001403 112.9269 247.1872 15.08839984 97036,6917.88,95.438,540.716,538.775,0.0
52667.0,STARLINK-4076,PAYLOAD,2024-02-13 22:02:58,15.08844706,0.0001657,53.2171,302.4173,103.3923,256.7253,-5.0616e-05,-1.094e-05,0.0,0 STARLINK-4076,1 52667U 22053M   24044.91872870 -.00001094  00000-0 -50616-4 0  9992,2 52667  53.2171 302.4173 0001657 103.3923 256.7253 15.08844706 97107,6917.866,95.437,540.877,538.585,0.0
52667.0,STARLINK-4076,PAYLOAD,2024-02-14 02:49:07,15.08849634,0.0001612,53.2173,301.5252,103.5778,256.5394,4.8742e-05,4.88e-06,0.0,0 STARLINK-4076,1 52667U 22053M   24045.11744645  .00000488  00000-0  48742-4 0  9994,2 52667  53.2173 301.5252 0001612 103.5778 256.5394 15.08849634 97130,6917.851,95.437,540.831,538.601,0.0
52667.0,STARLINK-4076,PAYLOAD,2024-02-14 17:07:36,15.08834104,0.0001479,53.2162,298.8536,86.5185,273.5977,7.402e-05,8.9e-06,0.0,0 STARLINK-4076,1 52667U 22053M   24045.71361835  .00000890  00000-0  74020-4 0  9991,2 52667  53.2162 298.8536 0001479  86.5185 273.5977 15.08834104 97226,6917.898,95.438,540.787,538.74,0.0
52667.0,STARLINK-4076,PAYLOAD,2024-02-14 21:53:45,15.0883869,0.0001477,53.2167,297.9584,99.5623,260.5536,7.1205e-05,8.45e-06,0.0,0 STARLINK-4076,1 52667U 22053M   24045.91233588  .00000845  00000-0  71205-4 0  9998,2 52667  53.2167 297.9584 0001477  99.5623 260.5536 15.08838690 97257,6917.884,95.438,540.771,538.728,0.0
52667.0,STARLINK-4076,PAYLOAD,2024-02-14 23:29:08,15.08840297,0.0001469,53.2168,297.6612,96.7149,263.4011,9.936e-05,1.294e-05,0.0,0 STARLINK-4076,1 52667U 22053M   24045.97857560  .00001294  00000-0  99360-4 0  9997,2 52667  53.2168 297.6612 0001469  96.7149 263.4011 15.08840297 97267,6917.879,95.438,540.761,538.728,0.0
52667.0,STARLINK-4076,PAYLOAD,2024-02-15 20:09:10,15.08836199,0.0001672,53.217,293.7963,109.1213,250.996,8.5009e-05,1.065e-05,0.0,0 STARLINK-4076,1 52667U 22053M   24046.83970024  .00001065  00000-0  85009-4 0  9995,2 52667  53.2170 293.7963 0001672 109.1213 250.9960 15.08836199 97397,6917.892,95.438,540.914,538.6,0.0
52667.0,STARLINK-4076,PAYLOAD,2024-02-15 21:44:33,15.08836582,0.0001614,53.2165,293.4996,105.2158,254.9013,9.2356e-05,1.182e-05,0.0,0 STARLINK-4076,1 52667U 22053M   24046.90594015  .00001182  00000-0  92356-4 0  9998,2 52667  53.2165 293.4996 0001614 105.2158 254.9013 15.08836582 97406,6917.891,95.438,540.872,538.639,0.0
52667.0,STARLINK-4076,PAYLOAD,2024-02-16 08:52:14,15.08843327,0.0001395,53.216,291.4181,93.9778,266.1374,0.00011701,1.575e-05,0.0,0 STARLINK-4076,1 52667U 22053M   24047.36961743  .00001575  00000-0  11701-3 0  9995,2 52667  53.2160 291.4181 0001395  93.9778 266.1374 15.08843327 97479,6917.87,95.437,540.7,538.77,0.0
52667.0,STARLINK-4076,PAYLOAD,2024-02-16 21:35:20,15.08842487,0.0001375,53.2158,289.0392,92.9648,267.1501,0.00013684,1.891e-05,0.0,0 STARLINK-4076,1 52667U 22053M   24047.89953826  .00001891  00000-0  13684-3 0  9999,2 52667  53.2158 289.0392 0001375  92.9648 267.1501 15.08842487 97554,6917.873,95.437,540.689,538.787,0.0
52667.0,STARLINK-4076,PAYLOAD,2024-02-17 02:21:29,15.08848468,0.0001399,53.2162,288.1466,92.5208,267.5945,0.00019915,2.884e-05,0.0,0 STARLINK-4076,1 52667U 22053M   24048.09825496  .00002884  00000-0  19915-3 0  9999,2 52667  53.2162 288.1466 0001399  92.5208 267.5945 15.08848468 97589,6917.855,95.437,540.687,538.752,0.0
52667.0,STARLINK-4076,PAYLOAD,2024-02-17 08:43:01,15.08848701,0.0001628,53.2158,286.9577,128.1745,231.9394,-4.3665e-05,-9.83e-06,0.0,0 STARLINK-4076,1 52667U 22053M   24048.36321252 -.00000983  00000-0 -43665-4 0  9990,2 52667  53.2158 286.9577 0001628 128.1745 231.9394 15.08848701 97628,6917.854,95.437,540.845,538.593,0.0
52667.0,STARLINK-4076,PAYLOAD,2024-02-17 19:50:44,15.08839319,0.0001534,53.2163,284.8728,97.72,262.3966,-3.7751e-05,-8.89e-06,0.0,0 STARLINK-4076,1 52667U 22053M   24048.82689969 -.00000889  00000-0 -37751-4 0  9997,2 52667  53.2163 284.8728 0001534  97.7200 262.3966 15.08839319 97697,6917.882,95.438,540.809,538.686,0.0
52667.0,STARLINK-4076,PAYLOAD,2024-02-17 21:26:07,15.08840649,0.0001389,53.216,284.5785,93.8831,266.232,2.3613e-05,8.8e-07,0.0,0 STARLINK-4076,1 52667U 22053M   24048.89313889  .00000088  00000-0  23613-4 0  9990,2 52667  53.2160 284.5785 0001389  93.8831 266.2320 15.08840649 97706,6917.878,95.438,540.704,538.783,0.0
52667.0,STARLINK-4076,PAYLOAD,2024-02-18 08:33:48,15.08845406,0.000149,53.2166,282.4967,88.636,271.4803,0.00010431,1.373e-05,0.0,0 STARLINK-4076,1 52667U 22053M   24049.35681666  .00001373  00000-0  10431-3 0  9994,2 52667  53.2166 282.4967 0001490  88.6360 271.4803 15.08845406 97770,6917.864,95.437,540.76,538.698,0.0
52667.0,STARLINK-4076,PAYLOAD,2024-02-18 22:52:17,15.08841981,0.0001492,53.2161,279.8212,89.2354,270.8809,-2.8332e-05,-7.39e-06,0.0,0 STARLINK-4076,1 52667U 22053M   24049.95297863 -.00000739  00000-0 -28332-4 0  9999,2 52667  53.2161 279.8212 0001492  89.2354 270.8809 15.08841981 97863,6917.874,95.437,540.771,538.707,0.0
52667.0,STARLINK-4076,PAYLOAD,2024-02-19 00:27:40,15.08843623,0.0001539,53.2163,279.5185,84.6379,275.4789,7.1274e-05,8.47e-06,0.0,0 STARLINK-4076,1 52667U 22053M   24050.01921724  .00000847  00000-0  71274-4 0  9999,2 52667  53.2163 279.5185 0001539  84.6379 275.4789 15.08843623 97873,6917.869,95.437,540.799,538.67,0.0
52667.0,STARLINK-4076,PAYLOAD,2024-02-19 08:24:36,15.08834998,0.0001492,53.2168,278.032,86.7723,273.344,-2.5078e-05,-6.87e-06,0.0,0 STARLINK-4076,1 52667U 22053M   24050.35042260 -.00000687  00000-0 -25078-4 0  9990,2 52667  53.2168 278.0320 0001492  86.7723 273.3440 15.08834998 97929,6917.896,95.438,540.793,538.729,0.0
52667.0,STARLINK-4076,PAYLOAD,2024-02-19 21:07:42,15.08835898,0.0001381,53.2159,275.6575,86.7706,273.3444,1.3027e-05,-8.1e-07,0.0,0 STARLINK-4076,1 52667U 22053M   24050.88034806 -.00000081  00000-0  13027-4 0  9993,2 52667  53.2159 275.6575 0001381  86.7706 273.3444 15.08835898 98006,6917.893,95.438,540.713,538.803,0.0
52667.0,STARLINK-4076,PAYLOAD,2024-02-20 08:15:23,15.08844056,0.0001458,53.2166,273.5759,86.6057,273.5102,8.1821e-05,1.015e-05,0.0,0 STARLINK-4076,1 52667U 22053M   24051.34402160  .00001015  00000-0  81821-4 0  9991,2 52667  53.2166 273.5759 0001458  86.6057 273.5102 15.08844056 98074,6917.868,95.437,540.742,538.724,0.0
52667.0,STARLINK-4076,PAYLOAD,2024-02-20 20:58:27,15.08853346,0.0001277,53.2157,271.1957,90.9907,269.1231,0.00016303,2.309e-05,0.0,0 STARLINK-4076,1 52667U 22053M   24051.87393302  .00002309  00000-0  16303-3 0  9995,2 52667  53.2157 271.1957 0001277  90.9907 269.1231 15.08853346 98154,6917.84,95.437,540.588,538.821,0.0
52667.0,STARLINK-4076,PAYLOAD,2024-02-21 00:09:14,15.0885622,0.0001311,53.215,270.6006,88.8792,271.235,0.00027469,4.088e-05,0.0,0 STARLINK-4076,1 52667U 22053M   24052.00641418  .00004088  00000-0  27469-3 0  9996,2 52667  53.2150 270.6006 0001311  88.8792 271.2350 15.08856220 98175,6917.831,95.437,540.603,538.789,0.0
52667.0,STARLINK-4076,PAYLOAD,2024-02-21 08:06:10,15.08843357,0.0001182,53.2153,269.1156,93.2876,266.8252,7.0758e-05,8.39e-06,0.0,0 STARLINK-4076,1 52667U 22053M   24052.33761937  .00000839  00000-0  70758-4 0  9991,2 52667  53.2153 269.1156 0001182  93.2876 266.8252 15.08843357 98220,6917.87,95.437,540.553,538.917,0.0
52667.0,STARLINK-4076,PAYLOAD,2024-02-21 20:49:15,15.08839552,0.0001502,53.2147,266.7363,93.7089,266.4075,0.00014001,1.941e-05,0.0,0 STARLINK-4076,1 52667U 22053M   24052.86754408  .00001941  00000-0  14001-3 0  9997,2 52667  53.2147 266.7363 0001502  93.7089 266.4075 15.08839552 98303,6917.882,95.438,540.786,538.708,0.0
52667.0,STARLINK-4076,PAYLOAD,2024-02-22 20:40:02,15.08844901,0.0001317,53.2151,262.2778,91.2582,268.8561,0.00013127,1.802e-05,0.0,0 STARLINK-4076,1 52667U 22053M   24053.86114029  .00001802  00000-0  13127-3 0  9991,2 52667  53.2151 262.2778 0001317  91.2582 268.8561 15.08844901 98450,6917.865,95.437,540.641,538.819,0.0
52667.0,STARLINK-4076,PAYLOAD,2024-02-23 06:12:21,15.08841516,0.0001383,53.2149,260.4937,92.3416,267.7734,7.7148e-05,9.4e-06,0.0,0 STARLINK-4076,1 52667U 22053M   24054.25858148  .00000940  00000-0  77148-4 0  9998,2 52667  53.2149 260.4937 0001383  92.3416 267.7734 15.08841516 98511,6917.876,95.437,540.697,538.784,0.0
52667.0,STARLINK-4076,PAYLOAD,2024-02-23 14:09:17,15.0884125,0.0001346,53.2146,259.0062,93.4991,266.6155,0.00019183,2.766e-05,0.0,0 STARLINK-4076,1 52667U 22053M   24054.58978245  .00002766  00000-0  19183-3 0  9997,2 52667  53.2146 259.0062 0001346  93.4991 266.6155 15.08841250 98565,6917.877,95.437,540.673,538.81,0.0
52667.0,STARLINK-4076,PAYLOAD,2024-02-23 18:55:26,15.08843086,0.0001345,53.2148,258.1142,93.2986,266.816,0.00019484,2.815e-05,0.0,0 STARLINK-4076,1 52667U 22053M   24054.78850147  .00002815  00000-0  19484-3 0  9998,2 52667  53.2148 258.1142 0001345  93.2986 266.8160 15.08843086 98597,6917.871,95.437,540.666,538.806,0.0
52667.0,STARLINK-4076,PAYLOAD,2024-02-24 06:03:08,15.08844917,0.0001328,53.2146,256.0325,92.2687,267.8457,0.00016391,2.322e-05,0.0,0 STARLINK-4076,1 52667U 22053M   24055.25218005  .00002322  00000-0  16391-3 0  9999,2 52667  53.2146 256.0325 0001328  92.2687 267.8457 15.08844917 98665,6917.865,95.437,540.649,538.812,0.0
